<?xml version="1.0" encoding="UTF-8"?>
<kml xmlns="http://www.opengis.net/kml/2.2">
	<Document>
		<Style id="st-52546-0">
			<IconStyle>
				<Icon>
					<href>http://maps.google.com/mapfiles/kml/pal4/icon57.png</href>
				</Icon>
				<scale>1</scale>
				<color>ff80c0ff</color>
			</IconStyle>
			<LineStyle>
				<color>ff000000</color>
				<width>1</width>
			</LineStyle>
			<PolyStyle>
				<color>ff80c0ff</color>
				<fill>1</fill>
				<outline>1</outline>
			</PolyStyle>
			<LabelStyle>
				<scale>1</scale>
				<color>bfffffff</color>
			</LabelStyle>
		</Style>
		<Folder>
			<name>fractures.gmt</name>
			<Placemark>
				<name>2</name>
				<styleUrl>#st-52546-0</styleUrl>
				<LineString>
					<tessellate>1</tessellate>
					<coordinates>
						-118.072819019,38.1491837656,0
						-118.069868673,38.1484819547,0
						-118.066665192,38.1493429235,0
						-118.059549647,38.1490492519,0
						-118.053140652,38.1492583287,0
						-118.048335154,38.1500196814,0
						-118.04397771,38.1504275391,0
						-118.038531871,38.1515419102,0
					</coordinates>
				</LineString>
			</Placemark>
			<Placemark>
				<name>3</name>
				<styleUrl>#st-52546-0</styleUrl>
				<LineString>
					<tessellate>1</tessellate>
					<coordinates>
						-118.036680667,38.1498530208,0
						-118.037088869,38.1488182855,0
						-118.037407213,38.1476449601,0
						-118.037325789,38.1466039302,0
						-118.037855609,38.1453603999,0
						-118.039734713,38.1441093902,0
						-118.040114025,38.1425109014,0
					</coordinates>
				</LineString>
			</Placemark>
			<Placemark>
				<name>5</name>
				<styleUrl>#st-52546-0</styleUrl>
				<LineString>
					<tessellate>1</tessellate>
					<coordinates>
						-117.933648251,38.1687641775,0
						-117.933786027,38.1665548144,0
						-117.934254395,38.1636523238,0
						-117.93348725,38.1610475494,0
						-117.933580133,38.1589667353,0
						-117.934137257,38.1573605126,0
						-117.9355764,38.1555718098,0
						-117.935483528,38.1533450064,0
						-117.934044447,38.1508261489,0
						-117.93436942,38.1479421809,0
						-117.933858858,38.1444739988,0
					</coordinates>
				</LineString>
			</Placemark>
			<Placemark>
				<name>6</name>
				<styleUrl>#st-52546-0</styleUrl>
				<LineString>
					<tessellate>1</tessellate>
					<coordinates>
						-117.969456623,38.1572343476,0
						-117.969027779,38.1567416038,0
						-117.96846702,38.1562229189,0
						-117.967661507,38.1557956119,0
						-117.967058031,38.1552229602,0
						-117.966142453,38.1544539764,0
						-117.965351762,38.1540776672,0
						-117.964320918,38.1537834377,0
						-117.963749608,38.1533433341,0
						-117.962958992,38.152817837,0
						-117.961897892,38.152376067,0
						-117.960846064,38.151916081,0
						-117.960031594,38.1515393118,0
					</coordinates>
				</LineString>
			</Placemark>
			<Placemark>
				<name>7</name>
				<styleUrl>#st-52546-0</styleUrl>
				<LineString>
					<tessellate>1</tessellate>
					<coordinates>
						-117.958439872,38.1641586256,0
						-117.95934347,38.1627047429,0
						-117.960048675,38.1610794768,0
						-117.96072953,38.1592439084,0
						-117.960607916,38.1574274794,0
						-117.959756846,38.1560508255,0
						-117.959659591,38.1548080095,0
						-117.959878441,38.1534887029,0
						-117.959983481,38.1523693429,0
						-117.960059959,38.1515568605,0
						-117.960251877,38.1508654134,0
						-117.960016977,38.1500474771,0
						-117.960704518,38.1477582381,0
						-117.96136154,38.1460864985,0
					</coordinates>
				</LineString>
			</Placemark>
			<Placemark>
				<name>8</name>
				<styleUrl>#st-52546-0</styleUrl>
				<LineString>
					<tessellate>1</tessellate>
					<coordinates>
						-117.959087537,38.1451336541,0
						-117.957684954,38.1452622595,0
						-117.956653316,38.1456182124,0
						-117.955827377,38.1463313091,0
						-117.955908747,38.1471425033,0
						-117.956062396,38.1480070555,0
						-117.955939565,38.149247174,0
						-117.955945671,38.1503218018,0
						-117.95527358,38.1508232034,0
						-117.954505476,38.1507890827,0
						-117.95355859,38.1511715271,0
						-117.952809189,38.1515193956,0
						-117.952159062,38.1526284533,0
						-117.951420278,38.1537955836,0
						-117.95000229,38.1546537903,0
						-117.949191601,38.1554169838,0
						-117.948785778,38.156148806,0
						-117.9479069,38.1570771901,0
						-117.947968316,38.1581152994,0
						-117.947777819,38.1594497809,0
						-117.948028029,38.160339768,0
						-117.947773959,38.1621684687,0
					</coordinates>
				</LineString>
			</Placemark>
			<Placemark>
				<name>9</name>
				<styleUrl>#st-52546-0</styleUrl>
				<LineString>
					<tessellate>1</tessellate>
					<coordinates>
						-117.913068779,38.1814382571,0
						-117.913318699,38.180203894,0
						-117.913637611,38.1789724904,0
						-117.913921756,38.1777688295,0
						-117.914253253,38.1768009329,0
						-117.914925345,38.1757709879,0
					</coordinates>
				</LineString>
			</Placemark>
			<Placemark>
				<name>10</name>
				<styleUrl>#st-52546-0</styleUrl>
				<LineString>
					<tessellate>1</tessellate>
					<coordinates>
						-117.900694545,38.1893827391,0
						-117.900798704,38.1877552299,0
						-117.901279057,38.186739848,0
						-117.90178332,38.1857653128,0
						-117.902519552,38.1849753926,0
						-117.903410627,38.1841855316,0
						-117.903875956,38.1834865208,0
						-117.903915998,38.1825742757,0
						-117.903681445,38.1811730891,0
						-117.903690126,38.1799001043,0
						-117.903854452,38.1790034013,0
						-117.904616553,38.1780217265,0
						-117.905378148,38.1773390226,0
					</coordinates>
				</LineString>
			</Placemark>
			<Placemark>
				<name>11</name>
				<styleUrl>#st-52546-0</styleUrl>
				<LineString>
					<tessellate>1</tessellate>
					<coordinates>
						-117.90818663,38.1757684975,0
						-117.908213741,38.1745784884,0
						-117.908150877,38.1732976318,0
						-117.907895286,38.1721672717,0
						-117.908357004,38.1710598855,0
						-117.908902853,38.1701093273,0
						-117.909337714,38.1691100783,0
						-117.909705701,38.1684526627,0
						-117.909739202,38.1676374429,0
						-117.909638906,38.1669935547,0
						-117.909739327,38.166180408,0
						-117.909911596,38.1653287447,0
						-117.910229018,38.1645739907,0
						-117.910354625,38.1639544348,0
						-117.910291899,38.1633065191,0
					</coordinates>
				</LineString>
			</Placemark>
			<Placemark>
				<name>12</name>
				<styleUrl>#st-52546-0</styleUrl>
				<LineString>
					<tessellate>1</tessellate>
					<coordinates>
						-117.98483999,38.1681164927,0
						-117.985401747,38.1673073255,0
						-117.98601048,38.1662774402,0
						-117.98441912,38.1688415327,0
						-117.98356544,38.1696794197,0
						-117.982683579,38.1705831445,0
						-117.982025008,38.1707008525,0
						-117.98163597,38.1711951409,0
						-117.980767906,38.1716894536,0
						-117.979959591,38.1718307178,0
						-117.979330855,38.1718542887,0
						-117.978702136,38.1721838482,0
					</coordinates>
				</LineString>
			</Placemark>
			<Placemark>
				<name>13</name>
				<styleUrl>#st-52546-0</styleUrl>
				<LineString>
					<tessellate>1</tessellate>
					<coordinates>
						-117.97192655,38.1759929389,0
						-117.971495719,38.1766251241,0
						-117.971255687,38.1772326397,0
						-117.970864472,38.1778230052,0
						-117.970222624,38.1784283079,0
						-117.969490916,38.1790840406,0
						-117.967947824,38.1798283123,0
						-117.966636187,38.1805177229,0
						-117.965729758,38.1812527924,0
						-117.96460496,38.1816660199,0
					</coordinates>
				</LineString>
			</Placemark>
			<Placemark>
				<name>14</name>
				<styleUrl>#st-52546-0</styleUrl>
				<LineString>
					<tessellate>1</tessellate>
					<coordinates>
						-117.961065869,38.1784415644,0
						-117.961551048,38.1791604453,0
						-117.962293362,38.1801318466,0
						-117.963052171,38.1807534106,0
						-117.964266482,38.1815663792,0
						-117.96519282,38.1820121704,0
						-117.966027636,38.1823796836,0
						-117.966635092,38.1825473283,0
						-117.96800149,38.1831692462,0
						-117.96918612,38.183385028,0
						-117.970766166,38.1832189527,0
						-117.97167764,38.1831718121,0
						-117.973167429,38.1826388551,0
						-117.974901614,38.1819745638,0
						-117.976522414,38.1811362175,0
						-117.977492586,38.1807344658,0
						-117.978371179,38.180246678,0
					</coordinates>
				</LineString>
			</Placemark>
			<Placemark>
				<name>15</name>
				<styleUrl>#st-52546-0</styleUrl>
				<LineString>
					<tessellate>1</tessellate>
					<coordinates>
						-117.960128968,38.1833513824,0
						-117.959148157,38.1840080476,0
						-117.958083075,38.1845074546,0
						-117.957359926,38.1845537445,0
						-117.955872394,38.1849613158,0
						-117.954465236,38.1849290222,0
						-117.953017183,38.1850730163,0
						-117.951793522,38.1850888204,0
						-117.950100695,38.1853609593,0
						-117.948876867,38.1857614509,0
						-117.947836527,38.1864184498,0
					</coordinates>
				</LineString>
			</Placemark>
			<Placemark>
				<name>16</name>
				<styleUrl>#st-52546-0</styleUrl>
				<LineString>
					<tessellate>1</tessellate>
					<coordinates>
						-117.944372141,38.1890001818,0
						-117.943722683,38.1879668706,0
						-117.943549113,38.1868891464,0
						-117.943179343,38.1854926591,0
						-117.943470733,38.1839993308,0
						-117.943333584,38.1830060469,0
						-117.943391591,38.1816288982,0
						-117.942831927,38.1805629043,0
						-117.942362299,38.1793223485,0
						-117.942382668,38.1781718225,0
						-117.9419781,38.1773747088,0
						-117.941581789,38.1763663357,0
					</coordinates>
				</LineString>
			</Placemark>
			<Placemark>
				<name>17</name>
				<styleUrl>#st-52546-0</styleUrl>
				<LineString>
					<tessellate>1</tessellate>
					<coordinates>
						-117.918504042,38.1519642488,0
						-117.918562957,38.1540331607,0
						-117.919061429,38.1555114368,0
						-117.919058885,38.1581735417,0
						-117.919260186,38.1608720238,0
						-117.919360588,38.163372043,0
						-117.919146696,38.1648108247,0
						-117.919143722,38.1664740156,0
						-117.919107214,38.1681337481,0
						-117.919553641,38.1708128943,0
						-117.921040256,38.1740011877,0
						-117.922095294,38.1761044792,0
						-117.9235956,38.1792673724,0
						-117.924876745,38.1819108973,0
						-117.926561655,38.1846866085,0
						-117.928013276,38.186449941,0
						-117.929858093,38.188982995,0
						-117.931279669,38.1906293844,0
						-117.93262093,38.1924162011,0
						-117.934424732,38.1943126805,0
						-117.935821249,38.1957502052,0
						-117.937601812,38.1974031759,0
					</coordinates>
				</LineString>
			</Placemark>
			<Placemark>
				<name>18</name>
				<styleUrl>#st-52546-0</styleUrl>
				<LineString>
					<tessellate>1</tessellate>
					<coordinates>
						-117.898444739,38.175292319,0
						-117.900001654,38.1739147447,0
						-117.900654557,38.1733242862,0
						-117.901457576,38.1728916758,0
						-117.902211039,38.1722224292,0
						-117.902963976,38.1717109344,0
						-117.903466237,38.1712385238,0
						-117.903918596,38.1706477915,0
						-117.905044134,38.1699298919,0
						-117.906514463,38.1691824125,0
						-117.907213365,38.1687804248,0
						-117.908051918,38.1684517829,0
					</coordinates>
				</LineString>
			</Placemark>
			<Placemark>
				<name>19</name>
				<styleUrl>#st-52546-0</styleUrl>
				<LineString>
					<tessellate>1</tessellate>
					<coordinates>
						-117.987638223,38.1354168855,0
						-117.988329074,38.1350465802,0
						-117.988569709,38.1347059072,0
						-117.988978771,38.1344219947,0
						-117.989435926,38.1343084023,0
						-117.989796873,38.1340812455,0
						-117.989941294,38.1337594862,0
						-117.990254146,38.133513399,0
					</coordinates>
				</LineString>
			</Placemark>
			<Placemark>
				<name>20</name>
				<styleUrl>#st-52546-0</styleUrl>
				<LineString>
					<tessellate>1</tessellate>
					<coordinates>
						-118.003294756,38.150793811,0
						-118.003904256,38.1505142583,0
						-118.004352491,38.1501961954,0
						-118.004914583,38.1496368508,0
						-118.005528525,38.1489139862,0
						-118.006232133,38.1483380777,0
						-118.006823193,38.1477161965,0
						-118.008516599,38.1460484418,0
						-118.009706114,38.1450972883,0
						-118.011020463,38.1444907561,0
						-118.011675201,38.1440236113,0
					</coordinates>
				</LineString>
			</Placemark>
			<Placemark>
				<name>21</name>
				<styleUrl>#st-52546-0</styleUrl>
				<LineString>
					<tessellate>1</tessellate>
					<coordinates>
						-117.991842452,38.1450182501,0
						-117.993428512,38.1435965433,0
						-117.994910539,38.1424153522,0
						-117.995695377,38.140482651,0
						-117.997272992,38.1392628638,0
						-117.999610679,38.1387115774,0
						-118.00074763,38.1376281404,0
						-118.002216777,38.1371143922,0
						-118.003751956,38.1365636819,0
						-118.0053876,38.1354787105,0
						-118.006940489,38.1348938075,0
					</coordinates>
				</LineString>
			</Placemark>
			<Placemark>
				<name>22</name>
				<styleUrl>#st-52546-0</styleUrl>
				<LineString>
					<tessellate>1</tessellate>
					<coordinates>
						-117.977560917,38.104049989,0
						-117.976286398,38.1037525997,0
						-117.974736553,38.1036450364,0
						-117.973805985,38.1027783584,0
						-117.973017884,38.1020381863,0
						-117.971944816,38.1008823738,0
						-117.970785579,38.1011198874,0
						-117.969810018,38.101235737,0
						-117.968397303,38.1001795487,0
					</coordinates>
				</LineString>
			</Placemark>
			<Placemark>
				<name>23</name>
				<styleUrl>#st-52546-0</styleUrl>
				<LineString>
					<tessellate>1</tessellate>
					<coordinates>
						-118.030475635,38.1714003458,0
						-118.028443687,38.1716419084,0
						-118.026001453,38.1723347817,0
						-118.024233166,38.1728872077,0
						-118.023335562,38.173073689,0
						-118.021924743,38.1737822335,0
						-118.021035362,38.1743691357,0
						-118.019902279,38.1754486777,0
						-118.019215593,38.1759884461,0
					</coordinates>
				</LineString>
			</Placemark>
			<Placemark>
				<name>24</name>
				<styleUrl>#st-52546-0</styleUrl>
				<LineString>
					<tessellate>1</tessellate>
					<coordinates>
						-118.016544602,38.1813710775,0
						-118.016622972,38.1801943609,0
						-118.017085231,38.1786191998,0
						-118.016544407,38.1770058851,0
						-118.016915719,38.1752135986,0
						-118.017115852,38.1738021465,0
						-118.017344384,38.172614745,0
						-118.017430326,38.1716289435,0
						-118.017544911,38.1703294652,0
						-118.017773393,38.1692540554,0
						-118.018149142,38.1674607129,0
					</coordinates>
				</LineString>
			</Placemark>
			<Placemark>
				<name>25</name>
				<styleUrl>#st-52546-0</styleUrl>
				<LineString>
					<tessellate>1</tessellate>
					<coordinates>
						-118.005445113,38.1903722196,0
						-118.006254148,38.188854251,0
						-118.00713322,38.1875588795,0
						-118.008119709,38.1864542595,0
						-118.00911226,38.1853378776,0
						-118.010814515,38.184411105,0
						-118.012313853,38.1835137099,0
						-118.013682852,38.1821948372,0
						-118.014721245,38.180677151,0
					</coordinates>
				</LineString>
			</Placemark>
			<Placemark>
				<name>26</name>
				<styleUrl>#st-52546-0</styleUrl>
				<LineString>
					<tessellate>1</tessellate>
					<coordinates>
						-117.954037044,38.1002915778,0
						-117.953824009,38.0989859663,0
						-117.952730174,38.0980281934,0
						-117.951797568,38.0978120089,0
						-117.950819093,38.0975587833,0
						-117.949773685,38.0966661883,0
						-117.949235963,38.0960084185,0
						-117.948368513,38.0954877659,0
						-117.947566257,38.0950240893,0
					</coordinates>
				</LineString>
			</Placemark>
			<Placemark>
				<name>27</name>
				<styleUrl>#st-52546-0</styleUrl>
				<LineString>
					<tessellate>1</tessellate>
					<coordinates>
						-118.016913842,38.1949275149,0
						-118.017297218,38.1939873443,0
						-118.018107667,38.1930133883,0
						-118.018832876,38.1922408581,0
						-118.019515407,38.1914683637,0
						-118.01998433,38.1907295697,0
					</coordinates>
				</LineString>
			</Placemark>
			<Placemark>
				<name>28</name>
				<styleUrl>#st-52546-0</styleUrl>
				<LineString>
					<tessellate>1</tessellate>
					<coordinates>
						-118.082064191,38.1290016866,0
						-118.08242828,38.1282436312,0
						-118.082926069,38.1274325689,0
						-118.083591163,38.1266041889,0
						-118.084180828,38.1254985662,0
						-118.084437903,38.1245227798,0
						-118.084592532,38.123575055,0
						-118.084824675,38.1223826608,0
						-118.08483962,38.1208553866,0
						-118.08498134,38.119796164,0
						-118.08512306,38.1187369317,0
						-118.085209013,38.117612973,0
					</coordinates>
				</LineString>
			</Placemark>
			<Placemark>
				<name>29</name>
				<styleUrl>#st-52546-0</styleUrl>
				<LineString>
					<tessellate>1</tessellate>
					<coordinates>
						-118.080276213,38.1284334711,0
						-118.079681376,38.1290693425,0
						-118.077748848,38.1299780319,0
						-118.076276177,38.1309239123,0
						-118.075171654,38.1317732593,0
						-118.073750456,38.133049153,0
						-118.072019481,38.1334061442,0
						-118.070679968,38.1341859433,0
						-118.068716409,38.1347841573,0
						-118.066409214,38.1353243825,0
						-118.063144875,38.1353624912,0
						-118.060194662,38.1346770888,0
					</coordinates>
				</LineString>
			</Placemark>
			<Placemark>
				<name>30</name>
				<styleUrl>#st-52546-0</styleUrl>
				<LineString>
					<tessellate>1</tessellate>
					<coordinates>
						-118.03077807,38.1729944461,0
						-118.030667368,38.1720477437,0
						-118.030483653,38.1711010936,0
						-118.030263458,38.170097197,0
						-118.029708938,38.1689096947,0
						-118.029700523,38.1675336718,0
						-118.029009253,38.1666092899,0
						-118.02887131,38.1657378245,0
						-118.028104139,38.1649639029,0
						-118.027264496,38.1645341367,0
					</coordinates>
				</LineString>
			</Placemark>
			<Placemark>
				<name>31</name>
				<styleUrl>#st-52546-0</styleUrl>
				<LineString>
					<tessellate>1</tessellate>
					<coordinates>
						-118.067521398,38.12502992,0
						-118.066249741,38.1257475926,0
						-118.065272587,38.1262885562,0
						-118.063778056,38.1267167624,0
						-118.062392212,38.1276434817,0
						-118.060887417,38.1283783582,0
					</coordinates>
				</LineString>
			</Placemark>
			<Placemark>
				<name>32</name>
				<styleUrl>#st-52546-0</styleUrl>
				<LineString>
					<tessellate>1</tessellate>
					<coordinates>
						-118.056019776,38.1328617186,0
						-118.055962801,38.132030387,0
						-118.05607578,38.1311531132,0
						-118.05591578,38.130225652,0
						-118.056049437,38.1288392225,0
						-118.056092124,38.1272146138,0
						-118.056092246,38.1258819107,0
						-118.055848352,38.1248346071,0
						-118.055401193,38.1235556923,0
					</coordinates>
				</LineString>
			</Placemark>
			<Placemark>
				<name>33</name>
				<styleUrl>#st-52546-0</styleUrl>
				<LineString>
					<tessellate>1</tessellate>
					<coordinates>
						-118.062212593,38.1169897734,0
						-118.0616505,38.1170153868,0
						-118.060573785,38.1175778778,0
						-118.059305111,38.1187290457,0
						-118.057980378,38.1189699692,0
						-118.056499177,38.1194607947,0
						-118.055652749,38.1207138596,0
					</coordinates>
				</LineString>
			</Placemark>
			<Placemark>
				<name>34</name>
				<styleUrl>#st-52546-0</styleUrl>
				<LineString>
					<tessellate>1</tessellate>
					<coordinates>
						-118.065428749,38.1742944558,0
						-118.063939294,38.1741888817,0
						-118.06262509,38.1734926053,0
						-118.061277489,38.17315513,0
						-118.059789392,38.1727342112,0
						-118.058312629,38.1722685259,0
						-118.056749915,38.1721006051,0
					</coordinates>
				</LineString>
			</Placemark>
			<Placemark>
				<name>35</name>
				<styleUrl>#st-52546-0</styleUrl>
				<LineString>
					<tessellate>1</tessellate>
					<coordinates>
						-118.058362819,38.1206140572,0
						-118.057747059,38.1209609067,0
						-118.056457687,38.1212519686,0
						-118.055100094,38.1213462099,0
						-118.054144698,38.1217688172,0
						-118.052726162,38.1215926992,0
						-118.051160501,38.1216235796,0
						-118.050193763,38.1219289567,0
						-118.049288949,38.1224351728,0
						-118.048551081,38.1231849553,0
						-118.047380175,38.1234946944,0
						-118.046071193,38.1234558403,0
						-118.044762122,38.1227563895,0
						-118.043798841,38.1227369502,0
						-118.042415895,38.123378026,0
						-118.040860196,38.1236304567,0
						-118.038983419,38.1233777232,0
						-118.037501461,38.1227558942,0
					</coordinates>
				</LineString>
			</Placemark>
			<Placemark>
				<name>36</name>
				<styleUrl>#st-52546-0</styleUrl>
				<LineString>
					<tessellate>1</tessellate>
					<coordinates>
						-118.055342894,38.1572237814,0
						-118.054455814,38.1569148374,0
						-118.053424616,38.156704482,0
						-118.05251809,38.1566585029,0
						-118.051336058,38.156711289,0
						-118.050088655,38.1569448167,0
						-118.048939409,38.1569975582,0
						-118.047625888,38.156973046,0
						-118.046345458,38.1571548617,0
					</coordinates>
				</LineString>
			</Placemark>
			<Placemark>
				<name>37</name>
				<styleUrl>#st-52546-0</styleUrl>
				<LineString>
					<tessellate>1</tessellate>
					<coordinates>
						-118.035841515,38.1388184273,0
						-118.035275615,38.1390913146,0
						-118.034691201,38.1391487594,0
						-118.034161343,38.1389907607,0
						-118.033236909,38.1390532757,0
						-118.032404327,38.1390082003,0
						-118.031385815,38.1390768401,0
						-118.030641232,38.1390859592,0
						-118.030033326,38.1392709939,0
					</coordinates>
				</LineString>
			</Placemark>
			<Placemark>
				<name>38</name>
				<styleUrl>#st-52546-0</styleUrl>
				<LineString>
					<tessellate>1</tessellate>
					<coordinates>
						-118.044424034,38.1674127629,0
						-118.045192521,38.1669346053,0
						-118.046284614,38.1662971787,0
						-118.047214374,38.1654052331,0
						-118.047941774,38.1645771373,0
						-118.048547915,38.1639082846,0
						-118.049235177,38.1633348342,0
					</coordinates>
				</LineString>
			</Placemark>
			<Placemark>
				<name>39</name>
				<styleUrl>#st-52546-0</styleUrl>
				<LineString>
					<tessellate>1</tessellate>
					<coordinates>
						-118.061801945,38.1691030172,0
						-118.059672721,38.169995259,0
						-118.057561895,38.1703876183,0
						-118.055662667,38.1706976768,0
						-118.053461589,38.1711055239,0
						-118.052175885,38.1711606932,0
						-118.050226152,38.1718870947,0
					</coordinates>
				</LineString>
			</Placemark>
			<Placemark>
				<name>40</name>
				<styleUrl>#st-52546-0</styleUrl>
				<LineString>
					<tessellate>1</tessellate>
					<coordinates>
						-118.067190203,38.1767524746,0
						-118.068118916,38.1760868546,0
						-118.068920337,38.175089038,0
						-118.069468356,38.1742244154,0
						-118.069720458,38.1733600759,0
						-118.069481548,38.1727836286,0
						-118.069564705,38.1721428434,0
						-118.070041345,38.1715237082,0
						-118.070124411,38.1708166505,0
						-118.070035778,38.1700291211,0
						-118.070258084,38.1690600363,0
					</coordinates>
				</LineString>
			</Placemark>
			<Placemark>
				<name>42</name>
				<styleUrl>#st-52546-0</styleUrl>
				<LineString>
					<tessellate>1</tessellate>
					<coordinates>
						-118.093101193,38.1028555171,0
						-118.093504,38.1023337679,0
						-118.094151438,38.1014932732,0
						-118.094684476,38.10107302,0
						-118.09528042,38.1003766396,0
						-118.095607969,38.1000087041,0
						-118.096105293,38.099504536,0
						-118.096744915,38.0990562525,0
						-118.097455573,38.0986079108,0
						-118.098415233,38.0981594617,0
					</coordinates>
				</LineString>
			</Placemark>
			<Placemark>
				<name>44</name>
				<styleUrl>#st-52546-0</styleUrl>
				<LineString>
					<tessellate>1</tessellate>
					<coordinates>
						-118.085668174,38.136425448,0
						-118.087479453,38.135584955,0
						-118.088475635,38.1348156699,0
						-118.089455066,38.1341039004,0
						-118.090268707,38.1333055683,0
						-118.092043643,38.1326929435,0
						-118.0929311,38.1321515508,0
						-118.09300352,38.13141073,0
					</coordinates>
				</LineString>
			</Placemark>
			<Placemark>
				<name>46</name>
				<styleUrl>#st-52546-0</styleUrl>
				<LineString>
					<tessellate>1</tessellate>
					<coordinates>
						-118.019036606,38.2021663546,0
						-118.019155466,38.2013189871,0
						-118.019805119,38.2001828211,0
						-118.020342165,38.1990395723,0
						-118.020445643,38.1980610005,0
						-118.020289762,38.1973271027,0
					</coordinates>
				</LineString>
			</Placemark>
			<Placemark>
				<name>47</name>
				<styleUrl>#st-52546-0</styleUrl>
				<LineString>
					<tessellate>1</tessellate>
					<coordinates>
						-118.153822072,38.1702515557,0
						-118.152571475,38.1706312274,0
						-118.151237266,38.1707268999,0
						-118.1497375,38.1708890135,0
						-118.148385811,38.1708193824,0
						-118.146035982,38.1708753445,0
					</coordinates>
				</LineString>
			</Placemark>
			<Placemark>
				<name>49</name>
				<styleUrl>#st-52546-0</styleUrl>
				<LineString>
					<tessellate>1</tessellate>
					<coordinates>
						-118.233949734,38.1452610261,0
						-118.234669476,38.1440562886,0
						-118.235084451,38.1430699677,0
						-118.236458823,38.1424684844,0
						-118.238154423,38.1423367597,0
						-118.24005354,38.1417247844,0
						-118.241544724,38.1406170386,0
						-118.243173013,38.1393098208,0
						-118.244630987,38.1383604189,0
						-118.244868448,38.1372439769,0
					</coordinates>
				</LineString>
			</Placemark>
			<Placemark>
				<name>51</name>
				<styleUrl>#st-52546-0</styleUrl>
				<LineString>
					<tessellate>1</tessellate>
					<coordinates>
						-118.194904863,38.1499254008,0
						-118.1932995,38.1490512432,0
						-118.191020047,38.1487221338,0
						-118.189302086,38.1484556272,0
						-118.187008978,38.1484100252,0
						-118.184649028,38.1485084279,0
						-118.182166982,38.1485284681,0
						-118.179187909,38.1470989295,0
						-118.17806546,38.1461715132,0
					</coordinates>
				</LineString>
			</Placemark>
			<Placemark>
				<name>52</name>
				<styleUrl>#st-52546-0</styleUrl>
				<LineString>
					<tessellate>1</tessellate>
					<coordinates>
						-118.215344528,38.145225736,0
						-118.213348551,38.1456651282,0
						-118.211746087,38.1474979575,0
						-118.208694281,38.1480678778,0
						-118.206228076,38.1484507911,0
						-118.204007177,38.1487980637,0
						-118.202792717,38.1492469537,0
						-118.200843421,38.1496754154,0
						-118.196479819,38.1509896187,0
					</coordinates>
				</LineString>
			</Placemark>
			<Placemark>
				<name>53</name>
				<styleUrl>#st-52546-0</styleUrl>
				<LineString>
					<tessellate>1</tessellate>
					<coordinates>
						-118.167988226,38.1452024812,0
						-118.163872741,38.1450435551,0
						-118.157736082,38.1454311131,0
						-118.150425302,38.1456939114,0
						-118.144348185,38.1463392118,0
						-118.138999084,38.1475065789,0
						-118.13224975,38.1471587421,0
						-118.125487297,38.149053175,0
						-118.120353751,38.1502626836,0
						-118.115841178,38.1512721323,0
						-118.113436888,38.1515592655,0
						-118.109669911,38.1532097688,0
						-118.107501957,38.1533344472,0
						-118.105336815,38.1540196009,0
					</coordinates>
				</LineString>
			</Placemark>
			<Placemark>
				<name>55</name>
				<styleUrl>#st-52546-0</styleUrl>
				<LineString>
					<tessellate>1</tessellate>
					<coordinates>
						-118.189610365,38.1560581451,0
						-118.187931083,38.15624123,0
						-118.186055182,38.1563243191,0
						-118.184204232,38.1565991037,0
						-118.182729784,38.1566249362,0
					</coordinates>
				</LineString>
			</Placemark>
			<Placemark>
				<name>56</name>
				<styleUrl>#st-52546-0</styleUrl>
				<LineString>
					<tessellate>1</tessellate>
					<coordinates>
						-118.205951765,38.1549868693,0
						-118.202035603,38.1556655514,0
						-118.199064956,38.1561612854,0
						-118.196618915,38.1573661384,0
						-118.194587945,38.1582930802,0
						-118.192258061,38.1591202286,0
						-118.191115675,38.159269657,0
						-118.18952756,38.1597678338,0
						-118.187996462,38.1598681248,0
						-118.186561363,38.1601690754,0
						-118.185774326,38.1601420629,0
						-118.18439258,38.1605453135,0
						-118.183116721,38.1608964425,0
						-118.182327828,38.1608351462,0
					</coordinates>
				</LineString>
			</Placemark>
			<Placemark>
				<name>57</name>
				<styleUrl>#st-52546-0</styleUrl>
				<LineString>
					<tessellate>1</tessellate>
					<coordinates>
						-118.158651197,38.1692654906,0
						-118.159993027,38.1692473801,0
						-118.160949243,38.169079295,0
						-118.162151695,38.1684645273,0
						-118.163099504,38.1677549196,0
						-118.163719504,38.167220227,0
						-118.164340719,38.1667081134,0
						-118.165097043,38.1656040706,0
						-118.165737096,38.1653516696,0
						-118.166232149,38.1644770526,0
						-118.167053029,38.1637064407,0
						-118.16846607,38.1638827435,0
						-118.169290837,38.1636402709,0
						-118.170721435,38.1629061409,0
						-118.1726694,38.1621830021,0
						-118.174565294,38.1618457865,0
					</coordinates>
				</LineString>
			</Placemark>
			<Placemark>
				<name>58</name>
				<styleUrl>#st-52546-0</styleUrl>
				<LineString>
					<tessellate>1</tessellate>
					<coordinates>
						-118.25881052,38.141087677,0
						-118.255344184,38.1421762698,0
						-118.251773256,38.1430581268,0
						-118.248202442,38.1438913394,0
						-118.24462889,38.1439976396,0
						-118.242150547,38.1439749556,0
						-118.238781657,38.1445939733,0
						-118.236315569,38.1450848587,0
						-118.233126745,38.1453635589,0
						-118.230158389,38.1458753754,0
						-118.227707272,38.1460623134,0
						-118.223828902,38.1461872176,0
					</coordinates>
				</LineString>
			</Placemark>
			<Placemark>
				<name>59</name>
				<styleUrl>#st-52546-0</styleUrl>
				<LineString>
					<tessellate>1</tessellate>
					<coordinates>
						-118.141210253,38.1713781881,0
						-118.138954181,38.1713438629,0
						-118.137108125,38.1710161979,0
						-118.135071243,38.1705232905,0
						-118.132727999,38.1698455631,0
						-118.130455479,38.1696843161,0
						-118.128339504,38.1699308357,0
						-118.126145119,38.1700129942,0
						-118.124368822,38.1699513505,0
						-118.1224544,38.1700455188,0
						-118.120764208,38.1705672821,0
						-118.118781349,38.1712732953,0
						-118.116813984,38.1720013752,0
						-118.114970787,38.1727262744,0
						-118.113019418,38.1731809953,0
						-118.110527078,38.1740869259,0
					</coordinates>
				</LineString>
			</Placemark>
			<Placemark>
				<name>60</name>
				<styleUrl>#st-52546-0</styleUrl>
				<LineString>
					<tessellate>1</tessellate>
					<coordinates>
						-118.133417913,38.1709981447,0
						-118.132687415,38.1718640363,0
						-118.131548291,38.1724368585,0
						-118.130014121,38.1726859172,0
						-118.128764631,38.1730405905,0
						-118.127714622,38.1737175109,0
						-118.126948631,38.1743218987,0
						-118.126287284,38.174884906,0
						-118.125593431,38.1754542432,0
						-118.124019737,38.1762703474,0
						-118.12230301,38.1769374874,0
						-118.121265367,38.1773085324,0
						-118.119203213,38.1776979591,0
						-118.117829456,38.1783565174,0
					</coordinates>
				</LineString>
			</Placemark>
			<Placemark>
				<name>61</name>
				<styleUrl>#st-52546-0</styleUrl>
				<LineString>
					<tessellate>1</tessellate>
					<coordinates>
						-118.071691422,38.1925267589,0
						-118.069991296,38.1935918544,0
						-118.067807939,38.1944721589,0
						-118.064743505,38.1947899636,0
						-118.061326659,38.196293349,0
						-118.057184521,38.196781429,0
						-118.054155983,38.1967285059,0
						-118.049816488,38.1987047293,0
						-118.048596693,38.1985781188,0
						-118.044612189,38.2010431133,0
						-118.042194805,38.2020015453,0
						-118.040517783,38.202422236,0
						-118.038685384,38.2036697282,0
						-118.036293554,38.2051814113,0
					</coordinates>
				</LineString>
			</Placemark>
			<Placemark>
				<name>62</name>
				<styleUrl>#st-52546-0</styleUrl>
				<LineString>
					<tessellate>1</tessellate>
					<coordinates>
						-118.045859072,38.1828076546,0
						-118.044867272,38.1835499255,0
						-118.043974986,38.1844482202,0
						-118.043046043,38.1847126441,0
						-118.04205271,38.1848102752,0
						-118.041208278,38.185091492,0
						-118.039977276,38.1853041129,0
						-118.038979604,38.1858839088,0
						-118.038079374,38.1862987041,0
						-118.037303303,38.1865426966,0
						-118.036527217,38.1866402829,0
					</coordinates>
				</LineString>
			</Placemark>
			<Placemark>
				<name>63</name>
				<styleUrl>#st-52546-0</styleUrl>
				<LineString>
					<tessellate>1</tessellate>
					<coordinates>
						-118.009570423,38.2098771063,0
						-118.009770619,38.2087699902,0
						-118.010104668,38.2073465058,0
						-118.010304436,38.2058176717,0
						-118.010168972,38.2044999028,0
						-118.009784324,38.2033878954,0
						-118.009399804,38.2021831494,0
					</coordinates>
				</LineString>
			</Placemark>
			<Placemark>
				<name>64</name>
				<styleUrl>#st-52546-0</styleUrl>
				<LineString>
					<tessellate>1</tessellate>
					<coordinates>
						-118.007369306,38.2109275079,0
						-118.007651403,38.2096216785,0
						-118.00776083,38.208519385,0
						-118.008169384,38.2066769147,0
						-118.008193196,38.2046403667,0
						-118.008236807,38.2033669303,0
						-118.008110822,38.202286989,0
					</coordinates>
				</LineString>
			</Placemark>
			<Placemark>
				<name>65</name>
				<styleUrl>#st-52546-0</styleUrl>
				<LineString>
					<tessellate>1</tessellate>
					<coordinates>
						-118.066144018,38.1628990885,0
						-118.064460155,38.1632962602,0
						-118.062506444,38.1636669471,0
						-118.06018133,38.1638521695,0
						-118.057553176,38.1639578137,0
						-118.054486497,38.1637718816,0
						-118.051400932,38.163712824,0
						-118.048407474,38.1636410402,0
						-118.045757505,38.1636316524,0
						-118.043209555,38.1636630663,0
					</coordinates>
				</LineString>
			</Placemark>
			<Placemark>
				<name>66</name>
				<styleUrl>#st-52546-0</styleUrl>
				<LineString>
					<tessellate>1</tessellate>
					<coordinates>
						-118.035298163,38.1772308083,0
						-118.036487747,38.176119711,0
						-118.037458804,38.1751446693,0
						-118.037362845,38.1736758792,0
						-118.036353805,38.1727712788,0
						-118.035729181,38.1722059179,0
						-118.035823446,38.1709358606,0
						-118.036585948,38.1697404298,0
						-118.03790095,38.1688766616,0
						-118.038831847,38.168183818,0
						-118.03965333,38.1674683069,0
						-118.040278451,38.1666741531,0
						-118.040408305,38.1659848365,0
						-118.040175237,38.1651203296,0
					</coordinates>
				</LineString>
			</Placemark>
			<Placemark>
				<name>67</name>
				<styleUrl>#st-52546-0</styleUrl>
				<LineString>
					<tessellate>1</tessellate>
					<coordinates>
						-118.007423942,38.1829865065,0
						-118.006117408,38.1831529533,0
						-118.004643028,38.1841477492,0
						-118.003631128,38.1845225079,0
						-118.002346958,38.185507316,0
						-118.000767421,38.1868335569,0
						-117.998239295,38.1879612927,0
						-117.996112757,38.1880200844,0
						-117.99387154,38.1876959941,0
					</coordinates>
				</LineString>
			</Placemark>
			<Placemark>
				<name>68</name>
				<styleUrl>#st-52546-0</styleUrl>
				<LineString>
					<tessellate>1</tessellate>
					<coordinates>
						-118.008010687,38.1813186572,0
						-118.008677449,38.1805918093,0
						-118.009279574,38.1794065594,0
						-118.009834687,38.1781337907,0
						-118.010118502,38.1767582934,0
					</coordinates>
				</LineString>
			</Placemark>
			<Placemark>
				<name>69</name>
				<styleUrl>#st-52546-0</styleUrl>
				<LineString>
					<tessellate>1</tessellate>
					<coordinates>
						-117.979427166,38.2099005052,0
						-117.980195776,38.2094693088,0
						-117.980854767,38.2084342477,0
						-117.981129418,38.2075716079,0
						-117.981294322,38.2064070139,0
						-117.981733696,38.2053287071,0
						-117.982270092,38.2047009472,0
						-117.983161188,38.2039485354,0
						-117.983600493,38.2031289839,0
					</coordinates>
				</LineString>
			</Placemark>
			<Placemark>
				<name>71</name>
				<styleUrl>#st-52546-0</styleUrl>
				<LineString>
					<tessellate>1</tessellate>
					<coordinates>
						-118.020751396,38.1861050158,0
						-118.020078953,38.186421719,0
						-118.019440047,38.1868441059,0
						-118.018734083,38.1870287003,0
						-118.017221155,38.1875827554,0
					</coordinates>
				</LineString>
			</Placemark>
			<Placemark>
				<name>74</name>
				<styleUrl>#st-52546-0</styleUrl>
				<LineString>
					<tessellate>1</tessellate>
					<coordinates>
						-118.012595327,38.2047159417,0
						-118.013189429,38.203688397,0
						-118.013545788,38.2027075708,0
						-118.013426712,38.2018202224,0
						-118.013753474,38.201376492,0
						-118.013634312,38.2001155052,0
					</coordinates>
				</LineString>
			</Placemark>
			<Placemark>
				<name>75</name>
				<styleUrl>#st-52546-0</styleUrl>
				<LineString>
					<tessellate>1</tessellate>
					<coordinates>
						-117.992869504,38.2111437086,0
						-117.993689728,38.2100804467,0
						-117.9943869,38.2095971514,0
						-117.994961048,38.209049403,0
						-117.995377437,38.2085465179,0
						-117.995809058,38.2078873515,0
						-117.996288623,38.207322368,0
						-117.996912012,38.20668205,0
						-117.997391578,38.2061170192,0
					</coordinates>
				</LineString>
			</Placemark>
			<Placemark>
				<name>76</name>
				<styleUrl>#st-52546-0</styleUrl>
				<LineString>
					<tessellate>1</tessellate>
					<coordinates>
						-117.983752662,38.1842403458,0
						-117.98454677,38.1842614002,0
						-117.985204759,38.1840652669,0
						-117.985828457,38.1838323646,0
						-117.986610264,38.18319476,0
						-117.98722187,38.1828042198,0
						-117.987730624,38.1822934067,0
						-117.988643456,38.1819221889,0
						-117.9890811,38.1815826875,0
						-117.989781607,38.1815615364,0
						-117.990347305,38.1813498214,0
						-117.991290278,38.1813074597,0
						-117.992098519,38.1810109008,0
						-117.992987632,38.1806720032,0
					</coordinates>
				</LineString>
			</Placemark>
			<Placemark>
				<name>77</name>
				<styleUrl>#st-52546-0</styleUrl>
				<LineString>
					<tessellate>1</tessellate>
					<coordinates>
						-118.012708601,38.2097870443,0
						-118.012976379,38.2090289641,0
						-118.013646031,38.2078917597,0
						-118.01380655,38.206775745,0
						-118.014101028,38.2056175877,0
						-118.014529508,38.2044804078,0
						-118.01458288,38.2033643358,0
					</coordinates>
				</LineString>
			</Placemark>
			<Placemark>
				<name>78</name>
				<styleUrl>#st-52546-0</styleUrl>
				<LineString>
					<tessellate>1</tessellate>
					<coordinates>
						-117.966233904,38.2089531047,0
						-117.964702361,38.2064538736,0
						-117.963681772,38.204133242,0
						-117.962809539,38.2018674749,0
						-117.961868079,38.199134786,0
					</coordinates>
				</LineString>
			</Placemark>
			<Placemark>
				<name>79</name>
				<styleUrl>#st-52546-0</styleUrl>
				<LineString>
					<tessellate>1</tessellate>
					<coordinates>
						-117.974633687,38.1867206239,0
						-117.972953216,38.1872676509,0
						-117.970126008,38.187749617,0
					</coordinates>
				</LineString>
			</Placemark>
			<Placemark>
				<name>80</name>
				<styleUrl>#st-52546-0</styleUrl>
				<LineString>
					<tessellate>1</tessellate>
					<coordinates>
						-117.966113263,38.1890333422,0
						-117.964796328,38.1899380694,0
						-117.963586914,38.1904375295,0
						-117.961217105,38.1907124883,0
						-117.958707919,38.190743714,0
					</coordinates>
				</LineString>
			</Placemark>
			<Placemark>
				<name>81</name>
				<styleUrl>#st-52546-0</styleUrl>
				<LineString>
					<tessellate>1</tessellate>
					<coordinates>
						-117.951846183,38.2033803527,0
						-117.951023758,38.2023608877,0
						-117.950151294,38.2016019962,0
						-117.949437204,38.2013677406,0
						-117.948335989,38.2013671424,0
						-117.947324173,38.2012496565,0
						-117.946907952,38.2007582818,0
						-117.945866475,38.2005706019,0
						-117.944556494,38.2011311617,0
						-117.944021022,38.2009203609,0
					</coordinates>
				</LineString>
			</Placemark>
			<Placemark>
				<name>82</name>
				<styleUrl>#st-52546-0</styleUrl>
				<LineString>
					<tessellate>1</tessellate>
					<coordinates>
						-117.938124607,38.243321471,0
						-117.940031844,38.2426809328,0
						-117.940849831,38.2418257086,0
						-117.942008325,38.2409171993,0
						-117.945074112,38.2393145542,0
						-117.946028713,38.2380314809,0
						-117.946846997,38.2368552579,0
						-117.948210331,38.2353048944,0
					</coordinates>
				</LineString>
			</Placemark>
			<Placemark>
				<name>83</name>
				<styleUrl>#st-52546-0</styleUrl>
				<LineString>
					<tessellate>1</tessellate>
					<coordinates>
						-118.005902624,38.1653518457,0
						-118.006117608,38.1636294561,0
						-118.006031903,38.1620760493,0
						-118.005774387,38.1608941781,0
						-118.005989273,38.1593745467,0
						-118.005946391,38.1581925388,0
					</coordinates>
				</LineString>
			</Placemark>
			<Placemark>
				<name>84</name>
				<styleUrl>#st-52546-0</styleUrl>
				<LineString>
					<tessellate>1</tessellate>
					<coordinates>
						-118.034414655,38.1491319679,0
						-118.032746734,38.1491017033,0
						-118.031272942,38.1490246976,0
						-118.030028516,38.1488445937,0
					</coordinates>
				</LineString>
			</Placemark>
			<Placemark>
				<name>85</name>
				<styleUrl>#st-52546-0</styleUrl>
				<LineString>
					<tessellate>1</tessellate>
					<coordinates>
						-117.9976814,38.1544759571,0
						-117.998151338,38.1534981011,0
						-117.998206733,38.1524549343,0
						-117.998040991,38.15121611,0
						-117.997543656,38.1501728129,0
						-117.996355385,38.1493250092,0
					</coordinates>
				</LineString>
			</Placemark>
			<Placemark>
				<name>86</name>
				<styleUrl>#st-52546-0</styleUrl>
				<LineString>
					<tessellate>1</tessellate>
					<coordinates>
						-118.027455591,38.1530382309,0
						-118.024735268,38.1532701966,0
						-118.021702403,38.1541623589,0
					</coordinates>
				</LineString>
			</Placemark>
			<Placemark>
				<name>87</name>
				<styleUrl>#st-52546-0</styleUrl>
				<LineString>
					<tessellate>1</tessellate>
					<coordinates>
						-118.0479888,38.1439744001,0
						-118.048733446,38.1429010548,0
						-118.049601202,38.1422178348,0
						-118.050158375,38.1412907375,0
					</coordinates>
				</LineString>
			</Placemark>
			<Placemark>
				<name>88</name>
				<styleUrl>#st-52546-0</styleUrl>
				<LineString>
					<tessellate>1</tessellate>
					<coordinates>
						-118.038520938,38.1210207947,0
						-118.037966631,38.1205365265,0
						-118.035965233,38.1196407476,0
					</coordinates>
				</LineString>
			</Placemark>
			<Placemark>
				<name>89</name>
				<styleUrl>#st-52546-0</styleUrl>
				<LineString>
					<tessellate>1</tessellate>
					<coordinates>
						-118.001407699,38.2220117573,0
						-118.001765739,38.2207191817,0
						-118.001926738,38.2196383505,0
						-118.003122181,38.2182499086,0
						-118.003452977,38.2170282557,0
						-118.003739867,38.2158391679,0
					</coordinates>
				</LineString>
			</Placemark>
			<Placemark>
				<name>90</name>
				<styleUrl>#st-52546-0</styleUrl>
				<LineString>
					<tessellate>1</tessellate>
					<coordinates>
						-118.070059945,38.1167901465,0
						-118.070584415,38.1161082546,0
						-118.071549162,38.115491194,0
						-118.072657335,38.1147233044,0
					</coordinates>
				</LineString>
			</Placemark>
			<Placemark>
				<name>91</name>
				<styleUrl>#st-52546-0</styleUrl>
				<LineString>
					<tessellate>1</tessellate>
					<coordinates>
						-118.073075868,38.1076447596,0
						-118.072507252,38.1081673899,0
						-118.071748868,38.1085905555,0
						-118.070579227,38.1087652528,0
						-118.069538122,38.1087962628,0
						-118.068144916,38.1086919465,0
					</coordinates>
				</LineString>
			</Placemark>
			<Placemark>
				<name>92</name>
				<styleUrl>#st-52546-0</styleUrl>
				<LineString>
					<tessellate>1</tessellate>
					<coordinates>
						-118.111718725,38.1053228972,0
						-118.110533861,38.1061682152,0
						-118.108840249,38.1067473177,0
						-118.107202797,38.1071041901,0
						-118.105677895,38.1071053983,0
					</coordinates>
				</LineString>
			</Placemark>
			<Placemark>
				<name>93</name>
				<styleUrl>#st-52546-0</styleUrl>
				<LineString>
					<tessellate>1</tessellate>
					<coordinates>
						-118.134140424,38.1006139654,0
						-118.130712095,38.1008376972,0
						-118.129386304,38.1011172272,0
					</coordinates>
				</LineString>
			</Placemark>
			<Placemark>
				<name>94</name>
				<styleUrl>#st-52546-0</styleUrl>
				<LineString>
					<tessellate>1</tessellate>
					<coordinates>
						-118.012912918,38.1261334274,0
						-118.011361961,38.1263175904,0
						-118.010571832,38.1267089311,0
						-118.00878677,38.1268239907,0
					</coordinates>
				</LineString>
			</Placemark>
			<Placemark>
				<name>95</name>
				<styleUrl>#st-52546-0</styleUrl>
				<LineString>
					<tessellate>1</tessellate>
					<coordinates>
						-118.019073379,38.1225092476,0
						-118.018027251,38.1230876256,0
						-118.015567842,38.1237326458,0
						-118.014748083,38.123821584,0
						-118.014182688,38.1240217343,0
					</coordinates>
				</LineString>
			</Placemark>
			<Placemark>
				<name>96</name>
				<styleUrl>#st-52546-0</styleUrl>
				<LineString>
					<tessellate>1</tessellate>
					<coordinates>
						-117.991501507,38.149069051,0
						-117.990905194,38.1492983841,0
						-117.990282927,38.1493962505,0
						-117.989158945,38.1494644453,0
						-117.988113818,38.1495920275,0
						-117.9873492,38.149620005,0
						-117.986957978,38.1494382215,0
					</coordinates>
				</LineString>
			</Placemark>
			<Placemark>
				<name>97</name>
				<styleUrl>#st-52546-0</styleUrl>
				<LineString>
					<tessellate>1</tessellate>
					<coordinates>
						-117.985284489,38.1468166383,0
						-117.98428097,38.1468537052,0
						-117.983643249,38.1466813274,0
						-117.982857231,38.1463289089,0
						-117.981734465,38.1461662475,0
						-117.980414532,38.1462684424,0
						-117.978991878,38.1467509306,0
						-117.977974753,38.146834834,0
						-117.976743764,38.1465397319,0
						-117.975512564,38.146539257,0
						-117.973639179,38.1462438302,0
						-117.970963079,38.1454426992,0
					</coordinates>
				</LineString>
			</Placemark>
			<Placemark>
				<name>98</name>
				<styleUrl>#st-52546-0</styleUrl>
				<LineString>
					<tessellate>1</tessellate>
					<coordinates>
						-117.975795139,38.143186962,0
						-117.975801138,38.1421794642,0
						-117.975449086,38.1412194428,0
						-117.975408166,38.139208407,0
						-117.975574381,38.1374723885,0
						-117.975486725,38.1362130558,0
						-117.975692154,38.1358361477,0
					</coordinates>
				</LineString>
			</Placemark>
			<Placemark>
				<name>99</name>
				<styleUrl>#st-52546-0</styleUrl>
				<LineString>
					<tessellate>1</tessellate>
					<coordinates>
						-118.016697429,38.1198735582,0
						-118.015224843,38.1200517589,0
						-118.01405421,38.1203786064,0
						-118.013110144,38.1208539881,0
						-118.012619222,38.1213293517,0
					</coordinates>
				</LineString>
			</Placemark>
			<Placemark>
				<name>100</name>
				<styleUrl>#st-52546-0</styleUrl>
				<LineString>
					<tessellate>1</tessellate>
					<coordinates>
						-117.987756356,38.1327433208,0
						-117.987836053,38.13189244,0
						-117.988373343,38.1310257756,0
						-117.988852472,38.1302377481,0
						-117.989293347,38.129476411,0
						-117.989981255,38.1289142183,0
					</coordinates>
				</LineString>
			</Placemark>
			<Placemark>
				<name>101</name>
				<styleUrl>#st-52546-0</styleUrl>
				<LineString>
					<tessellate>1</tessellate>
					<coordinates>
						-117.968490549,38.147944522,0
						-117.96594387,38.1477870401,0
						-117.963317516,38.1474415257,0
					</coordinates>
				</LineString>
			</Placemark>
			<Placemark>
				<name>102</name>
				<styleUrl>#st-52546-0</styleUrl>
				<LineString>
					<tessellate>1</tessellate>
					<coordinates>
						-117.998068112,38.1265547962,0
						-117.999085439,38.1264954563,0
						-118.000075976,38.1263031646,0
						-118.001128361,38.1263031765,0
						-118.002372079,38.1264538237,0
						-118.003328813,38.1263786474,0
						-118.004094211,38.1260024112,0
						-118.005290141,38.1260026192,0
					</coordinates>
				</LineString>
			</Placemark>
			<Placemark>
				<name>103</name>
				<styleUrl>#st-52546-0</styleUrl>
				<LineString>
					<tessellate>1</tessellate>
					<coordinates>
						-117.969387678,38.1420467801,0
						-117.96860052,38.1425103922,0
						-117.966516969,38.142798109,0
					</coordinates>
				</LineString>
			</Placemark>
			<Placemark>
				<name>104</name>
				<styleUrl>#st-52546-0</styleUrl>
				<LineString>
					<tessellate>1</tessellate>
					<coordinates>
						-117.978524982,38.1749100188,0
						-117.977245328,38.1749096463,0
						-117.976239991,38.1746219141,0
						-117.974777575,38.1745855448,0
						-117.97189879,38.1736863688,0
						-117.970391097,38.1727516743,0
					</coordinates>
				</LineString>
			</Placemark>
			<Placemark>
				<name>105</name>
				<styleUrl>#st-52546-0</styleUrl>
				<LineString>
					<tessellate>1</tessellate>
					<coordinates>
						-117.924692694,38.0958824918,0
						-117.925170583,38.0945975743,0
						-117.925172168,38.0932587475,0
						-117.925445694,38.0921343297,0
						-117.925447361,38.0907419339,0
						-117.925584841,38.0895638475,0
					</coordinates>
				</LineString>
			</Placemark>
			<Placemark>
				<name>106</name>
				<styleUrl>#st-52546-0</styleUrl>
				<LineString>
					<tessellate>1</tessellate>
					<coordinates>
						-117.917786359,38.1241807333,0
						-117.918230242,38.1204567651,0
						-117.919956038,38.1176638311,0
						-117.921521223,38.1147469824,0
					</coordinates>
				</LineString>
			</Placemark>
		</Folder>
	</Document>
</kml>
