<?xml version="1.0" encoding="UTF-8"?>
<kml xmlns="http://www.opengis.net/kml/2.2" xmlns:gx="http://www.google.com/kml/ext/2.2" xmlns:kml="http://www.opengis.net/kml/2.2" xmlns:atom="http://www.w3.org/2005/Atom">
<Document>
	<name>non.kml</name>
	<StyleMap id="st-52546-0011">
		<Pair>
			<key>normal</key>
			<styleUrl>#st-52546-0212</styleUrl>
		</Pair>
		<Pair>
			<key>highlight</key>
			<styleUrl>#st-52546-01015</styleUrl>
		</Pair>
	</StyleMap>
	<StyleMap id="st-52546-0013">
		<Pair>
			<key>normal</key>
			<styleUrl>#st-52546-022</styleUrl>
		</Pair>
		<Pair>
			<key>highlight</key>
			<styleUrl>#st-52546-01013</styleUrl>
		</Pair>
	</StyleMap>
	<StyleMap id="st-52546-0016">
		<Pair>
			<key>normal</key>
			<styleUrl>#st-52546-0222</styleUrl>
		</Pair>
		<Pair>
			<key>highlight</key>
			<styleUrl>#st-52546-0103</styleUrl>
		</Pair>
	</StyleMap>
	<StyleMap id="st-52546-0017">
		<Pair>
			<key>normal</key>
			<styleUrl>#st-52546-0224</styleUrl>
		</Pair>
		<Pair>
			<key>highlight</key>
			<styleUrl>#st-52546-0108</styleUrl>
		</Pair>
	</StyleMap>
	<StyleMap id="st-52546-0018">
		<Pair>
			<key>normal</key>
			<styleUrl>#st-52546-020</styleUrl>
		</Pair>
		<Pair>
			<key>highlight</key>
			<styleUrl>#st-52546-0106</styleUrl>
		</Pair>
	</StyleMap>
	<StyleMap id="st-52546-0020">
		<Pair>
			<key>normal</key>
			<styleUrl>#st-52546-02</styleUrl>
		</Pair>
		<Pair>
			<key>highlight</key>
			<styleUrl>#st-52546-0109</styleUrl>
		</Pair>
	</StyleMap>
	<StyleMap id="st-52546-00210">
		<Pair>
			<key>normal</key>
			<styleUrl>#st-52546-023</styleUrl>
		</Pair>
		<Pair>
			<key>highlight</key>
			<styleUrl>#st-52546-010110</styleUrl>
		</Pair>
	</StyleMap>
	<StyleMap id="st-52546-003">
		<Pair>
			<key>normal</key>
			<styleUrl>#st-52546-0218</styleUrl>
		</Pair>
		<Pair>
			<key>highlight</key>
			<styleUrl>#st-52546-01017</styleUrl>
		</Pair>
	</StyleMap>
	<StyleMap id="st-52546-005">
		<Pair>
			<key>normal</key>
			<styleUrl>#st-52546-0221</styleUrl>
		</Pair>
		<Pair>
			<key>highlight</key>
			<styleUrl>#st-52546-0101</styleUrl>
		</Pair>
	</StyleMap>
	<StyleMap id="st-52546-008">
		<Pair>
			<key>normal</key>
			<styleUrl>#st-52546-029</styleUrl>
		</Pair>
		<Pair>
			<key>highlight</key>
			<styleUrl>#st-52546-010</styleUrl>
		</Pair>
	</StyleMap>
	<StyleMap id="st-52546-009">
		<Pair>
			<key>normal</key>
			<styleUrl>#st-52546-0223</styleUrl>
		</Pair>
		<Pair>
			<key>highlight</key>
			<styleUrl>#st-52546-0107</styleUrl>
		</Pair>
	</StyleMap>
	<Style id="st-52546-010">
		<IconStyle>
			<color>ff80c0ff</color>
			<Icon>
				<href>http://maps.google.com/mapfiles/kml/pal4/icon57.png</href>
			</Icon>
		</IconStyle>
		<LabelStyle>
			<color>bfffffff</color>
		</LabelStyle>
		<LineStyle>
			<color>ff000000</color>
			<width>1.5</width>
		</LineStyle>
		<PolyStyle>
			<color>ff80c0ff</color>
		</PolyStyle>
	</Style>
	<Style id="st-52546-0101">
		<IconStyle>
			<color>ff80c0ff</color>
			<Icon>
				<href>http://maps.google.com/mapfiles/kml/pal4/icon57.png</href>
			</Icon>
		</IconStyle>
		<LabelStyle>
			<color>bfffffff</color>
		</LabelStyle>
		<LineStyle>
			<color>ff000000</color>
			<width>1.5</width>
		</LineStyle>
		<PolyStyle>
			<color>ff80c0ff</color>
		</PolyStyle>
	</Style>
	<Style id="st-52546-010110">
		<IconStyle>
			<color>ff80c0ff</color>
			<Icon>
				<href>http://maps.google.com/mapfiles/kml/pal4/icon57.png</href>
			</Icon>
		</IconStyle>
		<LabelStyle>
			<color>bfffffff</color>
		</LabelStyle>
		<LineStyle>
			<color>ff000000</color>
			<width>1.5</width>
		</LineStyle>
		<PolyStyle>
			<color>ff80c0ff</color>
		</PolyStyle>
	</Style>
	<Style id="st-52546-01013">
		<IconStyle>
			<color>ff80c0ff</color>
			<Icon>
				<href>http://maps.google.com/mapfiles/kml/pal4/icon57.png</href>
			</Icon>
		</IconStyle>
		<LabelStyle>
			<color>bfffffff</color>
		</LabelStyle>
		<LineStyle>
			<color>ff000000</color>
			<width>1.5</width>
		</LineStyle>
		<PolyStyle>
			<color>ff80c0ff</color>
		</PolyStyle>
	</Style>
	<Style id="st-52546-01015">
		<IconStyle>
			<color>ff80c0ff</color>
			<Icon>
				<href>http://maps.google.com/mapfiles/kml/pal4/icon57.png</href>
			</Icon>
		</IconStyle>
		<LabelStyle>
			<color>bfffffff</color>
		</LabelStyle>
		<LineStyle>
			<color>ff000000</color>
			<width>1.5</width>
		</LineStyle>
		<PolyStyle>
			<color>ff80c0ff</color>
		</PolyStyle>
	</Style>
	<Style id="st-52546-01017">
		<IconStyle>
			<color>ff80c0ff</color>
			<Icon>
				<href>http://maps.google.com/mapfiles/kml/pal4/icon57.png</href>
			</Icon>
		</IconStyle>
		<LabelStyle>
			<color>bfffffff</color>
		</LabelStyle>
		<LineStyle>
			<color>ff000000</color>
			<width>1.5</width>
		</LineStyle>
		<PolyStyle>
			<color>ff80c0ff</color>
		</PolyStyle>
	</Style>
	<Style id="st-52546-0103">
		<IconStyle>
			<color>ff80c0ff</color>
			<Icon>
				<href>http://maps.google.com/mapfiles/kml/pal4/icon57.png</href>
			</Icon>
		</IconStyle>
		<LabelStyle>
			<color>bfffffff</color>
		</LabelStyle>
		<LineStyle>
			<color>ff000000</color>
			<width>1.5</width>
		</LineStyle>
		<PolyStyle>
			<color>ff80c0ff</color>
		</PolyStyle>
	</Style>
	<Style id="st-52546-0106">
		<IconStyle>
			<color>ff80c0ff</color>
			<Icon>
				<href>http://maps.google.com/mapfiles/kml/pal4/icon57.png</href>
			</Icon>
		</IconStyle>
		<LabelStyle>
			<color>bfffffff</color>
		</LabelStyle>
		<LineStyle>
			<color>ff000000</color>
			<width>2</width>
		</LineStyle>
		<PolyStyle>
			<color>ff80c0ff</color>
		</PolyStyle>
	</Style>
	<Style id="st-52546-0107">
		<IconStyle>
			<color>ff80c0ff</color>
			<Icon>
				<href>http://maps.google.com/mapfiles/kml/pal4/icon57.png</href>
			</Icon>
		</IconStyle>
		<LabelStyle>
			<color>bfffffff</color>
		</LabelStyle>
		<LineStyle>
			<color>ff000000</color>
			<width>1.5</width>
		</LineStyle>
		<PolyStyle>
			<color>ff80c0ff</color>
		</PolyStyle>
	</Style>
	<Style id="st-52546-0108">
		<IconStyle>
			<color>ff80c0ff</color>
			<Icon>
				<href>http://maps.google.com/mapfiles/kml/pal4/icon57.png</href>
			</Icon>
		</IconStyle>
		<LabelStyle>
			<color>bfffffff</color>
		</LabelStyle>
		<LineStyle>
			<color>ff000000</color>
			<width>1.5</width>
		</LineStyle>
		<PolyStyle>
			<color>ff80c0ff</color>
		</PolyStyle>
	</Style>
	<Style id="st-52546-0109">
		<IconStyle>
			<color>ff80c0ff</color>
			<Icon>
				<href>http://maps.google.com/mapfiles/kml/pal4/icon57.png</href>
			</Icon>
		</IconStyle>
		<LabelStyle>
			<color>bfffffff</color>
		</LabelStyle>
		<LineStyle>
			<color>ff000000</color>
			<width>1.5</width>
		</LineStyle>
		<PolyStyle>
			<color>ff80c0ff</color>
		</PolyStyle>
	</Style>
	<Style id="st-52546-02">
		<IconStyle>
			<color>ff80c0ff</color>
			<Icon>
				<href>http://maps.google.com/mapfiles/kml/pal4/icon57.png</href>
			</Icon>
		</IconStyle>
		<LabelStyle>
			<color>bfffffff</color>
		</LabelStyle>
		<LineStyle>
			<color>ff000000</color>
			<width>1.5</width>
		</LineStyle>
		<PolyStyle>
			<color>ff80c0ff</color>
		</PolyStyle>
	</Style>
	<Style id="st-52546-020">
		<IconStyle>
			<color>ff80c0ff</color>
			<Icon>
				<href>http://maps.google.com/mapfiles/kml/pal4/icon57.png</href>
			</Icon>
		</IconStyle>
		<LabelStyle>
			<color>bfffffff</color>
		</LabelStyle>
		<LineStyle>
			<color>ff000000</color>
			<width>2</width>
		</LineStyle>
		<PolyStyle>
			<color>ff80c0ff</color>
		</PolyStyle>
	</Style>
	<Style id="st-52546-0212">
		<IconStyle>
			<color>ff80c0ff</color>
			<Icon>
				<href>http://maps.google.com/mapfiles/kml/pal4/icon57.png</href>
			</Icon>
		</IconStyle>
		<LabelStyle>
			<color>bfffffff</color>
		</LabelStyle>
		<LineStyle>
			<color>ff000000</color>
			<width>1.5</width>
		</LineStyle>
		<PolyStyle>
			<color>ff80c0ff</color>
		</PolyStyle>
	</Style>
	<Style id="st-52546-0218">
		<IconStyle>
			<color>ff80c0ff</color>
			<Icon>
				<href>http://maps.google.com/mapfiles/kml/pal4/icon57.png</href>
			</Icon>
		</IconStyle>
		<LabelStyle>
			<color>bfffffff</color>
		</LabelStyle>
		<LineStyle>
			<color>ff000000</color>
			<width>1.5</width>
		</LineStyle>
		<PolyStyle>
			<color>ff80c0ff</color>
		</PolyStyle>
	</Style>
	<Style id="st-52546-022">
		<IconStyle>
			<color>ff80c0ff</color>
			<Icon>
				<href>http://maps.google.com/mapfiles/kml/pal4/icon57.png</href>
			</Icon>
		</IconStyle>
		<LabelStyle>
			<color>bfffffff</color>
		</LabelStyle>
		<LineStyle>
			<color>ff000000</color>
			<width>1.5</width>
		</LineStyle>
		<PolyStyle>
			<color>ff80c0ff</color>
		</PolyStyle>
	</Style>
	<Style id="st-52546-0221">
		<IconStyle>
			<color>ff80c0ff</color>
			<Icon>
				<href>http://maps.google.com/mapfiles/kml/pal4/icon57.png</href>
			</Icon>
		</IconStyle>
		<LabelStyle>
			<color>bfffffff</color>
		</LabelStyle>
		<LineStyle>
			<color>ff000000</color>
			<width>1.5</width>
		</LineStyle>
		<PolyStyle>
			<color>ff80c0ff</color>
		</PolyStyle>
	</Style>
	<Style id="st-52546-0222">
		<IconStyle>
			<color>ff80c0ff</color>
			<Icon>
				<href>http://maps.google.com/mapfiles/kml/pal4/icon57.png</href>
			</Icon>
		</IconStyle>
		<LabelStyle>
			<color>bfffffff</color>
		</LabelStyle>
		<LineStyle>
			<color>ff000000</color>
			<width>1.5</width>
		</LineStyle>
		<PolyStyle>
			<color>ff80c0ff</color>
		</PolyStyle>
	</Style>
	<Style id="st-52546-0223">
		<IconStyle>
			<color>ff80c0ff</color>
			<Icon>
				<href>http://maps.google.com/mapfiles/kml/pal4/icon57.png</href>
			</Icon>
		</IconStyle>
		<LabelStyle>
			<color>bfffffff</color>
		</LabelStyle>
		<LineStyle>
			<color>ff000000</color>
			<width>1.5</width>
		</LineStyle>
		<PolyStyle>
			<color>ff80c0ff</color>
		</PolyStyle>
	</Style>
	<Style id="st-52546-0224">
		<IconStyle>
			<color>ff80c0ff</color>
			<Icon>
				<href>http://maps.google.com/mapfiles/kml/pal4/icon57.png</href>
			</Icon>
		</IconStyle>
		<LabelStyle>
			<color>bfffffff</color>
		</LabelStyle>
		<LineStyle>
			<color>ff000000</color>
			<width>1.5</width>
		</LineStyle>
		<PolyStyle>
			<color>ff80c0ff</color>
		</PolyStyle>
	</Style>
	<Style id="st-52546-023">
		<IconStyle>
			<color>ff80c0ff</color>
			<Icon>
				<href>http://maps.google.com/mapfiles/kml/pal4/icon57.png</href>
			</Icon>
		</IconStyle>
		<LabelStyle>
			<color>bfffffff</color>
		</LabelStyle>
		<LineStyle>
			<color>ff000000</color>
			<width>1.5</width>
		</LineStyle>
		<PolyStyle>
			<color>ff80c0ff</color>
		</PolyStyle>
	</Style>
	<Style id="st-52546-029">
		<IconStyle>
			<color>ff80c0ff</color>
			<Icon>
				<href>http://maps.google.com/mapfiles/kml/pal4/icon57.png</href>
			</Icon>
		</IconStyle>
		<LabelStyle>
			<color>bfffffff</color>
		</LabelStyle>
		<LineStyle>
			<color>ff000000</color>
			<width>1.5</width>
		</LineStyle>
		<PolyStyle>
			<color>ff80c0ff</color>
		</PolyStyle>
	</Style>
	<Folder>
		<name>non</name>
		<Placemark>
			<name>104</name>
			<styleUrl>#st-52546-0016</styleUrl>
			<LineString>
				<tessellate>1</tessellate>
				<coordinates>
					-117.978524982,38.1749100188,0 -117.977245328,38.1749096463,0 -117.976239991,38.1746219141,0 -117.974777575,38.1745855448,0 -117.97189879,38.1736863688,0 -117.970391097,38.1727516743,0 
				</coordinates>
			</LineString>
		</Placemark>
		<Placemark>
			<name>98，判断不出方向</name>
			<styleUrl>#st-52546-0018</styleUrl>
			<LineString>
				<tessellate>1</tessellate>
				<coordinates>
					-117.975795139,38.143186962,0 -117.975801138,38.1421794642,0 -117.975449086,38.1412194428,0 -117.975408166,38.139208407,0 -117.975574381,38.1374723885,0 -117.975486725,38.1362130558,0 -117.975692154,38.1358361477,0 
				</coordinates>
			</LineString>
		</Placemark>
		<Placemark>
			<name>88</name>
			<styleUrl>#st-52546-009</styleUrl>
			<LineString>
				<tessellate>1</tessellate>
				<coordinates>
					-118.038520938,38.1210207947,0 -118.037966631,38.1205365265,0 -118.035965233,38.1196407476,0 
				</coordinates>
			</LineString>
		</Placemark>
		<Placemark>
			<name>84,剖面无法识别</name>
			<styleUrl>#st-52546-00210</styleUrl>
			<LineString>
				<tessellate>1</tessellate>
				<coordinates>
					-118.034414655,38.1491319679,0 -118.032746734,38.1491017033,0 -118.031272942,38.1490246976,0 -118.030028516,38.1488445937,0 
				</coordinates>
			</LineString>
		</Placemark>
		<Placemark>
			<name>85</name>
			<styleUrl>#st-52546-0013</styleUrl>
			<LineString>
				<tessellate>1</tessellate>
				<coordinates>
					-117.9976814,38.1544759571,0 -117.998151338,38.1534981011,0 -117.998206733,38.1524549343,0 -117.998040991,38.15121611,0 -117.997543656,38.1501728129,0 -117.996355385,38.1493250092,0 
				</coordinates>
			</LineString>
		</Placemark>
		<Placemark>
			<name>74</name>
			<styleUrl>#st-52546-008</styleUrl>
			<LineString>
				<tessellate>1</tessellate>
				<coordinates>
					-118.012595327,38.2047159417,0 -118.013189429,38.203688397,0 -118.013545788,38.2027075708,0 -118.013426712,38.2018202224,0 -118.013753474,38.201376492,0 -118.013634312,38.2001155052,0 
				</coordinates>
			</LineString>
		</Placemark>
		<Placemark>
			<name>68</name>
			<styleUrl>#st-52546-0011</styleUrl>
			<LineString>
				<tessellate>1</tessellate>
				<coordinates>
					-118.008010687,38.1813186572,0 -118.008677449,38.1805918093,0 -118.009279574,38.1794065594,0 -118.009834687,38.1781337907,0 -118.010118502,38.1767582934,0 
				</coordinates>
			</LineString>
		</Placemark>
		<Placemark>
			<name>64</name>
			<styleUrl>#st-52546-0020</styleUrl>
			<LineString>
				<tessellate>1</tessellate>
				<coordinates>
					-118.007369306,38.2109275079,0 -118.007651403,38.2096216785,0 -118.00776083,38.208519385,0 -118.008169384,38.2066769147,0 -118.008193196,38.2046403667,0 -118.008236807,38.2033669303,0 -118.008110822,38.202286989,0 
				</coordinates>
			</LineString>
		</Placemark>
		<Placemark>
			<name>34,剖面看不出跳变</name>
			<styleUrl>#st-52546-003</styleUrl>
			<LineString>
				<tessellate>1</tessellate>
				<coordinates>
					-118.065428749,38.1742944558,0 -118.063939294,38.1741888817,0 -118.06262509,38.1734926053,0 -118.061277489,38.17315513,0 -118.059789392,38.1727342112,0 -118.058312629,38.1722685259,0 -118.056749915,38.1721006051,0 
				</coordinates>
			</LineString>
		</Placemark>
		<Placemark>
			<name>77</name>
			<styleUrl>#st-52546-005</styleUrl>
			<LineString>
				<tessellate>1</tessellate>
				<coordinates>
					-118.012708601,38.2097870443,0 -118.012976379,38.2090289641,0 -118.013646031,38.2078917597,0 -118.01380655,38.206775745,0 -118.014101028,38.2056175877,0 -118.014529508,38.2044804078,0 -118.01458288,38.2033643358,0 
				</coordinates>
			</LineString>
		</Placemark>
		<Placemark>
			<name>78</name>
			<styleUrl>#st-52546-0017</styleUrl>
			<LineString>
				<tessellate>1</tessellate>
				<coordinates>
					-117.966233904,38.2089531047,0 -117.964702361,38.2064538736,0 -117.963681772,38.204133242,0 -117.962809539,38.2018674749,0 -117.961868079,38.199134786,0 
				</coordinates>
			</LineString>
		</Placemark>
		<atom:link rel="app" href="https://www.google.com/earth/about/versions/#earth-pro" title="Google Earth Pro 7.3.6.10201"></atom:link>
	</Folder>
</Document>
</kml>
